CCSDS_OMM_VERS = 2.0
CREATION_DATE  = 
ORIGINATOR     = 

OBJECT_NAME    = YOTSUBA-KULOVER
OBJECT_ID      = 1998-067XN
CENTER_NAME    = EARTH
REF_FRAME      = TEME
TIME_SYSTEM    = UTC
MEAN_ELEMENT_THEORY = SGP/SGP4

EPOCH          = 2026-03-01T08:23:37.382208
MEAN_MOTION    = 15.76940610
ECCENTRICITY   = .0006112
INCLINATION    = 51.6222
RA_OF_ASC_NODE = 100.4331
ARG_OF_PERICENTER = 19.8048
MEAN_ANOMALY   = 340.3188

EPHEMERIS_TYPE = 0
CLASSIFICATION_TYPE = U
NORAD_CAT_ID   = 65941
ELEMENT_SET_NO = 999
REV_AT_EPOCH   = 2218
BSTAR          = .10771E-2
MEAN_MOTION_DOT = .181603E-2
MEAN_MOTION_DDOT = 0

CCSDS_OMM_VERS = 2.0
CREATION_DATE  = 
ORIGINATOR     = 

OBJECT_NAME    = BOTAN
OBJECT_ID      = 1998-067XP
CENTER_NAME    = EARTH
REF_FRAME      = TEME
TIME_SYSTEM    = UTC
MEAN_ELEMENT_THEORY = SGP/SGP4

EPOCH          = 2026-03-01T07:53:39.334272
MEAN_MOTION    = 16.13419316
ECCENTRICITY   = .0006842
INCLINATION    = 51.6093
RA_OF_ASC_NODE = 93.3995
ARG_OF_PERICENTER = 39.1940
MEAN_ANOMALY   = 320.9569

EPHEMERIS_TYPE = 0
CLASSIFICATION_TYPE = U
NORAD_CAT_ID   = 65942
ELEMENT_SET_NO = 999
REV_AT_EPOCH   = 2227
BSTAR          = .17297E-2
MEAN_MOTION_DOT = .1991374E-1
MEAN_MOTION_DDOT = .37933E-2

CCSDS_OMM_VERS = 2.0
CREATION_DATE  = 
ORIGINATOR     = 

OBJECT_NAME    = E-KAGAKU-1
OBJECT_ID      = 1998-067XQ
CENTER_NAME    = EARTH
REF_FRAME      = TEME
TIME_SYSTEM    = UTC
MEAN_ELEMENT_THEORY = SGP/SGP4

EPOCH          = 2026-03-01T11:30:22.237056
MEAN_MOTION    = 15.76747517
ECCENTRICITY   = .000631
INCLINATION    = 51.6239
RA_OF_ASC_NODE = 99.8138
ARG_OF_PERICENTER = 28.4787
MEAN_ANOMALY   = 331.6556

EPHEMERIS_TYPE = 0
CLASSIFICATION_TYPE = U
NORAD_CAT_ID   = 65943
ELEMENT_SET_NO = 999
REV_AT_EPOCH   = 2220
BSTAR          = .10418E-2
MEAN_MOTION_DOT = .173992E-2
MEAN_MOTION_DDOT = 0

CCSDS_OMM_VERS = 2.0
CREATION_DATE  = 
ORIGINATOR     = 

OBJECT_NAME    = HRC MONOBLOCK CAMERA
OBJECT_ID      = 1998-067XR
CENTER_NAME    = EARTH
REF_FRAME      = TEME
TIME_SYSTEM    = UTC
MEAN_ELEMENT_THEORY = SGP/SGP4

EPOCH          = 2026-03-01T19:54:40.906368
MEAN_MOTION    = 15.61244027
ECCENTRICITY   = .0003342
INCLINATION    = 51.6275
RA_OF_ASC_NODE = 105.1747
ARG_OF_PERICENTER = 58.2632
MEAN_ANOMALY   = 301.8687

EPHEMERIS_TYPE = 0
CLASSIFICATION_TYPE = U
NORAD_CAT_ID   = 66052
ELEMENT_SET_NO = 999
REV_AT_EPOCH   = 2116
BSTAR          = .63635E-3
MEAN_MOTION_DOT = .54879E-3
MEAN_MOTION_DDOT = 0

CCSDS_OMM_VERS = 2.0
CREATION_DATE  = 
ORIGINATOR     = 

OBJECT_NAME    = HTV-X1
OBJECT_ID      = 2025-241A
CENTER_NAME    = EARTH
REF_FRAME      = TEME
TIME_SYSTEM    = UTC
MEAN_ELEMENT_THEORY = SGP/SGP4

EPOCH          = 2026-03-01T13:48:17.544384
MEAN_MOTION    = 15.48382986
ECCENTRICITY   = .0008284
INCLINATION    = 51.6320
RA_OF_ASC_NODE = 112.4722
ARG_OF_PERICENTER = 146.1756
MEAN_ANOMALY   = 213.9762

EPHEMERIS_TYPE = 0
CLASSIFICATION_TYPE = U
NORAD_CAT_ID   = 66174
ELEMENT_SET_NO = 999
REV_AT_EPOCH   = 55479
BSTAR          = .19202E-3
MEAN_MOTION_DOT = .9927E-4
MEAN_MOTION_DDOT = 0

CCSDS_OMM_VERS = 2.0
CREATION_DATE  = 
ORIGINATOR     = 

OBJECT_NAME    = SZ-21 MODULE
OBJECT_ID      = 2025-246C
CENTER_NAME    = EARTH
REF_FRAME      = TEME
TIME_SYSTEM    = UTC
MEAN_ELEMENT_THEORY = SGP/SGP4

EPOCH          = 2026-03-01T14:29:05.135424
MEAN_MOTION    = 15.67828728
ECCENTRICITY   = .0001468
INCLINATION    = 41.4736
RA_OF_ASC_NODE = 253.1136
ARG_OF_PERICENTER = 286.2005
MEAN_ANOMALY   = 73.8675

EPHEMERIS_TYPE = 0
CLASSIFICATION_TYPE = U
NORAD_CAT_ID   = 66515
ELEMENT_SET_NO = 999
REV_AT_EPOCH   = 1680
BSTAR          = .35055E-3
MEAN_MOTION_DOT = .3957E-3
MEAN_MOTION_DDOT = 0

CCSDS_OMM_VERS = 2.0
CREATION_DATE  = 
ORIGINATOR     = 

OBJECT_NAME    = SHENZHOU-22
OBJECT_ID      = 2025-272A
CENTER_NAME    = EARTH
REF_FRAME      = TEME
TIME_SYSTEM    = UTC
MEAN_ELEMENT_THEORY = SGP/SGP4

EPOCH          = 2026-03-01T18:42:31.245984
MEAN_MOTION    = 15.60278755
ECCENTRICITY   = .0006462
INCLINATION    = 41.4651
RA_OF_ASC_NODE = 256.2782
ARG_OF_PERICENTER = 223.4056
MEAN_ANOMALY   = 136.6275

EPHEMERIS_TYPE = 0
CLASSIFICATION_TYPE = U
NORAD_CAT_ID   = 66645
ELEMENT_SET_NO = 999
REV_AT_EPOCH   = 26787
BSTAR          = .20477E-3
MEAN_MOTION_DOT = .16927E-3
MEAN_MOTION_DDOT = 0

CCSDS_OMM_VERS = 2.0
CREATION_DATE  = 
ORIGINATOR     = 

OBJECT_NAME    = SOYUZ-MS 28
OBJECT_ID      = 2025-275A
CENTER_NAME    = EARTH
REF_FRAME      = TEME
TIME_SYSTEM    = UTC
MEAN_ELEMENT_THEORY = SGP/SGP4

EPOCH          = 2026-03-01T13:48:17.544384
MEAN_MOTION    = 15.48382986
ECCENTRICITY   = .0008284
INCLINATION    = 51.6320
RA_OF_ASC_NODE = 112.4722
ARG_OF_PERICENTER = 146.1756
MEAN_ANOMALY   = 213.9762

EPHEMERIS_TYPE = 0
CLASSIFICATION_TYPE = U
NORAD_CAT_ID   = 66664
ELEMENT_SET_NO = 999
REV_AT_EPOCH   = 55484
BSTAR          = .19202E-3
MEAN_MOTION_DOT = .9927E-4
MEAN_MOTION_DDOT = 0

CCSDS_OMM_VERS = 2.0
CREATION_DATE  = 
ORIGINATOR     = 

OBJECT_NAME    = DUPLEX
OBJECT_ID      = 1998-067XS
CENTER_NAME    = EARTH
REF_FRAME      = TEME
TIME_SYSTEM    = UTC
MEAN_ELEMENT_THEORY = SGP/SGP4

EPOCH          = 2026-03-01T10:17:55.358016
MEAN_MOTION    = 15.55608097
ECCENTRICITY   = .000196
INCLINATION    = 51.6290
RA_OF_ASC_NODE = 110.7512
ARG_OF_PERICENTER = 85.3418
MEAN_ANOMALY   = 274.7797

EPHEMERIS_TYPE = 0
CLASSIFICATION_TYPE = U
NORAD_CAT_ID   = 66906
ELEMENT_SET_NO = 999
REV_AT_EPOCH   = 1384
BSTAR          = .48582E-3
MEAN_MOTION_DOT = .3361E-3
MEAN_MOTION_DDOT = 0

CCSDS_OMM_VERS = 2.0
CREATION_DATE  = 
ORIGINATOR     = 

OBJECT_NAME    = ISS OBJECT XT
OBJECT_ID      = 1998-067XT
CENTER_NAME    = EARTH
REF_FRAME      = TEME
TIME_SYSTEM    = UTC
MEAN_ELEMENT_THEORY = SGP/SGP4

EPOCH          = 2026-03-01T10:10:42.767904
MEAN_MOTION    = 15.66538666
ECCENTRICITY   = .0004392
INCLINATION    = 51.6255
RA_OF_ASC_NODE = 107.7079
ARG_OF_PERICENTER = 30.0220
MEAN_ANOMALY   = 330.1027

EPHEMERIS_TYPE = 0
CLASSIFICATION_TYPE = U
NORAD_CAT_ID   = 66907
ELEMENT_SET_NO = 999
REV_AT_EPOCH   = 1388
BSTAR          = .12738E-2
MEAN_MOTION_DOT = .137518E-2
MEAN_MOTION_DDOT = 0

CCSDS_OMM_VERS = 2.0
CREATION_DATE  = 
ORIGINATOR     = 

OBJECT_NAME    = ISS OBJECT XU
OBJECT_ID      = 1998-067XU
CENTER_NAME    = EARTH
REF_FRAME      = TEME
TIME_SYSTEM    = UTC
MEAN_ELEMENT_THEORY = SGP/SGP4

EPOCH          = 2026-03-01T10:08:52.779840
MEAN_MOTION    = 15.66615725
ECCENTRICITY   = .0004524
INCLINATION    = 51.6252
RA_OF_ASC_NODE = 107.6969
ARG_OF_PERICENTER = 32.6879
MEAN_ANOMALY   = 327.4396

EPHEMERIS_TYPE = 0
CLASSIFICATION_TYPE = U
NORAD_CAT_ID   = 66908
ELEMENT_SET_NO = 999
REV_AT_EPOCH   = 1388
BSTAR          = .12779E-2
MEAN_MOTION_DOT = .138414E-2
MEAN_MOTION_DDOT = 0

CCSDS_OMM_VERS = 2.0
CREATION_DATE  = 
ORIGINATOR     = 

OBJECT_NAME    = SILVERSAT
OBJECT_ID      = 1998-067XV
CENTER_NAME    = EARTH
REF_FRAME      = TEME
TIME_SYSTEM    = UTC
MEAN_ELEMENT_THEORY = SGP/SGP4

EPOCH          = 2026-03-01T08:58:18.295104
MEAN_MOTION    = 15.68880735
ECCENTRICITY   = .0005352
INCLINATION    = 51.6257
RA_OF_ASC_NODE = 107.3696
ARG_OF_PERICENTER = 28.2570
MEAN_ANOMALY   = 331.8716

EPHEMERIS_TYPE = 0
CLASSIFICATION_TYPE = U
NORAD_CAT_ID   = 66909
ELEMENT_SET_NO = 999
REV_AT_EPOCH   = 1388
BSTAR          = .142E-2
MEAN_MOTION_DOT = .169451E-2
MEAN_MOTION_DDOT = 0

